FENGYUN 1C DEB          
1 29896U 99025GS  26074.21196560  .00000304  00000+0  35157-3 0  9998
2 29896  99.4156 328.3668 0238217 224.0155 264.7811 13.65487239953046
FENGYUN 1C DEB          
1 29897U 99025GT  26073.28932492  .00001782  00000+0  19053-2 0  9994
2 29897  98.6273 291.5408 0296637 260.8819 162.7805 13.57589038941820
FENGYUN 1C DEB          
1 29898U 99025GU  26073.92052771  .00006128  00000+0  36168-2 0  9994
2 29898  98.2329  58.3220 0423404 300.7740 111.0812 13.71381673944246
FENGYUN 1C DEB          
1 29899U 99025GV  26071.84938463  .00000241  00000+0  36908-3 0  9998
2 29899  98.6734 219.2236 0352736 212.1790 145.7373 13.37529342932899
FENGYUN 1C DEB          
1 29901U 99025GX  26073.92700100  .00000207  00000+0  32678-3 0  9990
2 29901  98.7561 236.5062 0378953  55.8269  92.4358 13.33322130931479
FENGYUN 1C DEB          
1 29904U 99025HA  26074.09690750  .00002260  00000+0  51115-3 0  9999
2 29904  99.0274 122.8290 0207898  44.2279 317.5319 14.44845079  3911
FENGYUN 1C DEB          
1 29906U 99025HC  26074.22370587  .00009815  00000+0  24495-2 0  9992
2 29906  98.7019 185.6852 0036156 225.2461 134.5789 14.51391295994986
FENGYUN 1C DEB          
1 29907U 99025HD  26074.17990749  .00002062  00000+0  11133-2 0  9997
2 29907  99.1007 147.2760 0080466 351.3337  62.7730 14.12179956979039
FENGYUN 1C DEB          
1 29909U 99025HF  26074.27183322  .00011341  00000+0  24861-2 0  9993
2 29909  98.6312 186.2842 0038521  95.2501 318.9615 14.57343654997529
FENGYUN 1C DEB          
1 29911U 99025HH  26074.05780154  .00001275  00000+0  62784-3 0  9990
2 29911  98.7035 120.5745 0025602 243.7603 176.0312 14.19167613987407
FENGYUN 1C DEB          
1 29912U 99025HJ  26074.29128418  .00005934  00000+0  17212-2 0  9997
2 29912  98.7328 179.1550 0039304 302.3120 118.3457 14.44315916993749
FENGYUN 1C DEB          
1 29913U 99025HK  26073.47089566  .00000671  00000+0  41610-3 0  9990
2 29913  98.7929  74.8348 0063081  14.1415 138.5387 14.07497320982559
FENGYUN 1C DEB          
1 29914U 99025HL  26073.87075170 -.00000055  00000+0 -78594-5 0  9992
2 29914  98.8334 104.8081 0034724 216.8848 321.6277 14.03177798980788
FENGYUN 1C DEB          
1 29916U 99025HN  26073.72900715  .00000732  00000+0  85387-3 0  9996
2 29916  99.1892  92.0382 0271344  23.5983  32.3332 13.57111940947000
FENGYUN 1C DEB          
1 29917U 99025HP  26072.87048301  .00001207  00000+0  11777-2 0  9995
2 29917  98.8734 292.6188 0223196 243.9273 136.6315 13.70697675953797
FENGYUN 1C DEB          
1 29918U 99025HQ  26074.18278593  .00004000  00000+0  14342-2 0  9995
2 29918  98.8442 163.7680 0013378  57.1226   0.8247 14.34455271991198
