[{"OBJECT_NAME":"FENGYUN 1C DEB","OBJECT_ID":"1999-025GS","EPOCH":"2026-03-15T05:05:13.827840","MEAN_MOTION":13.65487239,"ECCENTRICITY":0.02382175,"INCLINATION":99.4156,"RA_OF_ASC_NODE":328.3668,"ARG_OF_PERICENTER":224.0155,"MEAN_ANOMALY":264.7811,"EPHEMERIS_TYPE":0,"CLASSIFICATION_TYPE":"U","NORAD_CAT_ID":29896,"ELEMENT_SET_NO":999,"REV_AT_EPOCH":95304,"BSTAR":0.00035156593,"MEAN_MOTION_DOT":3.04e-6,"MEAN_MOTION_DDOT":0},{"OBJECT_NAME":"FENGYUN 1C DEB","OBJECT_ID":"1999-025GT","EPOCH":"2026-03-14T06:56:37.673088","MEAN_MOTION":13.57589038,"ECCENTRICITY":0.02966375,"INCLINATION":98.6273,"RA_OF_ASC_NODE":291.5408,"ARG_OF_PERICENTER":260.8819,"MEAN_ANOMALY":162.7805,"EPHEMERIS_TYPE":0,"CLASSIFICATION_TYPE":"U","NORAD_CAT_ID":29897,"ELEMENT_SET_NO":999,"REV_AT_EPOCH":94182,"BSTAR":0.0019053302,"MEAN_MOTION_DOT":1.782e-5,"MEAN_MOTION_DDOT":0},{"OBJECT_NAME":"FENGYUN 1C DEB","OBJECT_ID":"1999-025GU","EPOCH":"2026-03-14T22:05:33.594144","MEAN_MOTION":13.71381673,"ECCENTRICITY":0.04234048,"INCLINATION":98.2329,"RA_OF_ASC_NODE":58.322,"ARG_OF_PERICENTER":300.774,"MEAN_ANOMALY":111.0812,"EPHEMERIS_TYPE":0,"CLASSIFICATION_TYPE":"U","NORAD_CAT_ID":29898,"ELEMENT_SET_NO":999,"REV_AT_EPOCH":94424,"BSTAR":0.0036168437,"MEAN_MOTION_DOT":6.128e-5,"MEAN_MOTION_DDOT":0},{"OBJECT_NAME":"FENGYUN 1C DEB","OBJECT_ID":"1999-025GV","EPOCH":"2026-03-12T20:23:06.832032","MEAN_MOTION":13.37529342,"ECCENTRICITY":0.03527366,"INCLINATION":98.6734,"RA_OF_ASC_NODE":219.2236,"ARG_OF_PERICENTER":212.179,"MEAN_ANOMALY":145.7373,"EPHEMERIS_TYPE":0,"CLASSIFICATION_TYPE":"U","NORAD_CAT_ID":29899,"ELEMENT_SET_NO":999,"REV_AT_EPOCH":93289,"BSTAR":0.00036907571,"MEAN_MOTION_DOT":2.41e-6,"MEAN_MOTION_DDOT":0},{"OBJECT_NAME":"FENGYUN 1C DEB","OBJECT_ID":"1999-025GX","EPOCH":"2026-03-14T22:14:52.886400","MEAN_MOTION":13.3332213,"ECCENTRICITY":0.03789539,"INCLINATION":98.7561,"RA_OF_ASC_NODE":236.5062,"ARG_OF_PERICENTER":55.8269,"MEAN_ANOMALY":92.4358,"EPHEMERIS_TYPE":0,"CLASSIFICATION_TYPE":"U","NORAD_CAT_ID":29901,"ELEMENT_SET_NO":999,"REV_AT_EPOCH":93147,"BSTAR":0.00032677825,"MEAN_MOTION_DOT":2.07e-6,"MEAN_MOTION_DDOT":0},{"OBJECT_NAME":"FENGYUN 1C DEB","OBJECT_ID":"1999-025HA","EPOCH":"2026-03-15T02:19:32.808000","MEAN_MOTION":14.44845079,"ECCENTRICITY":0.02078983,"INCLINATION":99.0274,"RA_OF_ASC_NODE":122.829,"ARG_OF_PERICENTER":44.2279,"MEAN_ANOMALY":317.5319,"EPHEMERIS_TYPE":0,"CLASSIFICATION_TYPE":"U","NORAD_CAT_ID":29904,"ELEMENT_SET_NO":999,"REV_AT_EPOCH":391,"BSTAR":0.00051115258,"MEAN_MOTION_DOT":2.26e-5,"MEAN_MOTION_DDOT":0},{"OBJECT_NAME":"FENGYUN 1C DEB","OBJECT_ID":"1999-025HC","EPOCH":"2026-03-15T05:22:08.187168","MEAN_MOTION":14.51391295,"ECCENTRICITY":0.00361561,"INCLINATION":98.7019,"RA_OF_ASC_NODE":185.6852,"ARG_OF_PERICENTER":225.2461,"MEAN_ANOMALY":134.5789,"EPHEMERIS_TYPE":0,"CLASSIFICATION_TYPE":"U","NORAD_CAT_ID":29906,"ELEMENT_SET_NO":999,"REV_AT_EPOCH":99498,"BSTAR":0.0024494931,"MEAN_MOTION_DOT":9.815e-5,"MEAN_MOTION_DDOT":0},{"OBJECT_NAME":"FENGYUN 1C DEB","OBJECT_ID":"1999-025HD","EPOCH":"2026-03-15T04:19:04.007136","MEAN_MOTION":14.12179956,"ECCENTRICITY":0.00804661,"INCLINATION":99.1007,"RA_OF_ASC_NODE":147.276,"ARG_OF_PERICENTER":351.3337,"MEAN_ANOMALY":62.773,"EPHEMERIS_TYPE":0,"CLASSIFICATION_TYPE":"U","NORAD_CAT_ID":29907,"ELEMENT_SET_NO":999,"REV_AT_EPOCH":97903,"BSTAR":0.0011132987,"MEAN_MOTION_DOT":2.062e-5,"MEAN_MOTION_DDOT":0},{"OBJECT_NAME":"FENGYUN 1C DEB","OBJECT_ID":"1999-025HF","EPOCH":"2026-03-15T06:31:26.390208","MEAN_MOTION":14.57343654,"ECCENTRICITY":0.00385213,"INCLINATION":98.6312,"RA_OF_ASC_NODE":186.2842,"ARG_OF_PERICENTER":95.2501,"MEAN_ANOMALY":318.9615,"EPHEMERIS_TYPE":0,"CLASSIFICATION_TYPE":"U","NORAD_CAT_ID":29909,"ELEMENT_SET_NO":999,"REV_AT_EPOCH":99752,"BSTAR":0.0024861425,"MEAN_MOTION_DOT":0.00011341,"MEAN_MOTION_DDOT":0},{"OBJECT_NAME":"FENGYUN 1C DEB","OBJECT_ID":"1999-025HH","EPOCH":"2026-03-15T01:23:14.053056","MEAN_MOTION":14.19167613,"ECCENTRICITY":0.00256025,"INCLINATION":98.7035,"RA_OF_ASC_NODE":120.5745,"ARG_OF_PERICENTER":243.7603,"MEAN_ANOMALY":176.0312,"EPHEMERIS_TYPE":0,"CLASSIFICATION_TYPE":"U","NORAD_CAT_ID":29911,"ELEMENT_SET_NO":999,"REV_AT_EPOCH":98740,"BSTAR":0.0006278366,"MEAN_MOTION_DOT":1.275e-5,"MEAN_MOTION_DDOT":0},{"OBJECT_NAME":"FENGYUN 1C DEB","OBJECT_ID":"1999-025HJ","EPOCH":"2026-03-15T06:59:26.953152","MEAN_MOTION":14.44315916,"ECCENTRICITY":0.00393049,"INCLINATION":98.7328,"RA_OF_ASC_NODE":179.155,"ARG_OF_PERICENTER":302.312,"MEAN_ANOMALY":118.3457,"EPHEMERIS_TYPE":0,"CLASSIFICATION_TYPE":"U","NORAD_CAT_ID":29912,"ELEMENT_SET_NO":999,"REV_AT_EPOCH":99374,"BSTAR":0.0017212199,"MEAN_MOTION_DOT":5.934e-5,"MEAN_MOTION_DDOT":0},{"OBJECT_NAME":"FENGYUN 1C DEB","OBJECT_ID":"1999-025HK","EPOCH":"2026-03-14T11:18:05.385024","MEAN_MOTION":14.0749732,"ECCENTRICITY":0.00630818,"INCLINATION":98.7929,"RA_OF_ASC_NODE":74.8348,"ARG_OF_PERICENTER":14.1415,"MEAN_ANOMALY":138.5387,"EPHEMERIS_TYPE":0,"CLASSIFICATION_TYPE":"U","NORAD_CAT_ID":29913,"ELEMENT_SET_NO":999,"REV_AT_EPOCH":98255,"BSTAR":0.00041609718,"MEAN_MOTION_DOT":6.71e-6,"MEAN_MOTION_DDOT":0},{"OBJECT_NAME":"FENGYUN 1C DEB","OBJECT_ID":"1999-025HL","EPOCH":"2026-03-14T20:53:52.946880","MEAN_MOTION":14.03177798,"ECCENTRICITY":0.00347247,"INCLINATION":98.8334,"RA_OF_ASC_NODE":104.8081,"ARG_OF_PERICENTER":216.8848,"MEAN_ANOMALY":321.6277,"EPHEMERIS_TYPE":0,"CLASSIFICATION_TYPE":"U","NORAD_CAT_ID":29914,"ELEMENT_SET_NO":999,"REV_AT_EPOCH":98078,"BSTAR":-7.85944e-6,"MEAN_MOTION_DOT":-5.5e-7,"MEAN_MOTION_DDOT":0},{"OBJECT_NAME":"FENGYUN 1C DEB","OBJECT_ID":"1999-025HN","EPOCH":"2026-03-14T17:29:46.217760","MEAN_MOTION":13.5711194,"ECCENTRICITY":0.0271344,"INCLINATION":99.1892,"RA_OF_ASC_NODE":92.0382,"ARG_OF_PERICENTER":23.5983,"MEAN_ANOMALY":32.3332,"EPHEMERIS_TYPE":0,"CLASSIFICATION_TYPE":"U","NORAD_CAT_ID":29916,"ELEMENT_SET_NO":999,"REV_AT_EPOCH":94700,"BSTAR":0.00085387292,"MEAN_MOTION_DOT":7.32e-6,"MEAN_MOTION_DDOT":0},{"OBJECT_NAME":"FENGYUN 1C DEB","OBJECT_ID":"1999-025HP","EPOCH":"2026-03-13T20:53:29.732064","MEAN_MOTION":13.70697675,"ECCENTRICITY":0.02231967,"INCLINATION":98.8734,"RA_OF_ASC_NODE":292.6188,"ARG_OF_PERICENTER":243.9273,"MEAN_ANOMALY":136.6315,"EPHEMERIS_TYPE":0,"CLASSIFICATION_TYPE":"U","NORAD_CAT_ID":29917,"ELEMENT_SET_NO":999,"REV_AT_EPOCH":95379,"BSTAR":0.0011776526,"MEAN_MOTION_DOT":1.207e-5,"MEAN_MOTION_DDOT":0},{"OBJECT_NAME":"FENGYUN 1C DEB","OBJECT_ID":"1999-025HQ","EPOCH":"2026-03-15T04:23:12.704352","MEAN_MOTION":14.34455271,"ECCENTRICITY":0.00133783,"INCLINATION":98.8442,"RA_OF_ASC_NODE":163.768,"ARG_OF_PERICENTER":57.1226,"MEAN_ANOMALY":0.8247,"EPHEMERIS_TYPE":0,"CLASSIFICATION_TYPE":"U","NORAD_CAT_ID":29918,"ELEMENT_SET_NO":999,"REV_AT_EPOCH":99119,"BSTAR":0.0014342473,"MEAN_MOTION_DOT":4.0e-5,"MEAN_MOTION_DDOT":0}]
